{"type": "FeatureCollection", "features": [ {"type": "Feature", "properties": {"norad_id": 36439, "name": "COSMOS 2251 DEB", "group": "cosmos-2251-debris", "lat": 40.06952202627817, "lon": -161.15332812964093, "alt_km": 1289.7399122231827, "timestamp": "2025-12-15T04:01:20.849419+00:00", "meta": {"OBJECT_NAME": "COSMOS 2251 DEB", "OBJECT_ID": "1993-036BAN", "EPOCH": "2025-12-13T21:04:43.144896", "MEAN_MOTION": 13.47798346, "ECCENTRICITY": 0.04278596, "INCLINATION": 73.9686, "RA_OF_ASC_NODE": 34.8989, "ARG_OF_PERICENTER": 6.5347, "MEAN_ANOMALY": 354.1091, "EPHEMERIS_TYPE": 0, "CLASSIFICATION_TYPE": "U", "NORAD_CAT_ID": 36439, "ELEMENT_SET_NO": 999, "REV_AT_EPOCH": 58628, "BSTAR": 0.0013017792, "MEAN_MOTION_DOT": 1.382e-05, "MEAN_MOTION_DDOT": 0}, "tle": {"line1": "1 36439U 93036BAN 25347.87827714  .00001382  00000+0  13018-2 0  9999", "line2": "2 36439  73.9686  34.8989 0427859   6.5347 354.1091 13.47798346586281"}}, "geometry": {"type": "Point", "coordinates": [-161.15332812964093, 40.06952202627817]}}, {"type": "Feature", "properties": {"norad_id": 36441, "name": "COSMOS 2251 DEB", "group": "cosmos-2251-debris", "lat": -68.08254781771562, "lon": -149.16369227321945, "alt_km": 627.1991305305601, "timestamp": "2025-12-15T04:01:20.849429+00:00", "meta": {"OBJECT_NAME": "COSMOS 2251 DEB", "OBJECT_ID": "1993-036BAQ", "EPOCH": "2025-12-14T06:11:09.070368", "MEAN_MOTION": 15.0679602, "ECCENTRICITY": 0.01085391, "INCLINATION": 73.835, "RA_OF_ASC_NODE": 346.5968, "ARG_OF_PERICENTER": 85.3354, "MEAN_ANOMALY": 276.0222, "EPHEMERIS_TYPE": 0, "CLASSIFICATION_TYPE": "U", "NORAD_CAT_ID": 36441, "ELEMENT_SET_NO": 999, "REV_AT_EPOCH": 86988, "BSTAR": 0.00049628009, "MEAN_MOTION_DOT": 8.421e-05, "MEAN_MOTION_DDOT": 0}, "tle": {"line1": "1 36441U 93036BAQ 25348.25774387  .00008421  00000+0  49628-3 0  9990", "line2": "2 36441  73.8350 346.5968 0108539  85.3354 276.0222 15.06796020869887"}}, "geometry": {"type": "Point", "coordinates": [-149.16369227321945, -68.08254781771562]}}, {"type": "Feature", "properties": {"norad_id": 36442, "name": "COSMOS 2251 DEB", "group": "cosmos-2251-debris", "lat": -51.14990931429931, "lon": -124.97822240503884, "alt_km": 480.6520504362943, "timestamp": "2025-12-15T04:01:20.849439+00:00", "meta": {"OBJECT_NAME": "COSMOS 2251 DEB", "OBJECT_ID": "1993-036BAR", "EPOCH": "2025-12-08T10:48:39.469248", "MEAN_MOTION": 15.27762018, "ECCENTRICITY": 0.00088131, "INCLINATION": 73.9528, "RA_OF_ASC_NODE": 48.4206, "ARG_OF_PERICENTER": 323.6974, "MEAN_ANOMALY": 36.3628, "EPHEMERIS_TYPE": 0, "CLASSIFICATION_TYPE": "U", "NORAD_CAT_ID": 36442, "ELEMENT_SET_NO": 999, "REV_AT_EPOCH": 85850, "BSTAR": 0.005804433, "MEAN_MOTION_DOT": 0.00161056, "MEAN_MOTION_DDOT": 0}, "tle": {"line1": "1 36442U 93036BAR 25342.45045682  .00161056  00000+0  58044-2 0  9991", "line2": "2 36442  73.9528  48.4206 0008813 323.6974  36.3628 15.27762018858506"}}, "geometry": {"type": "Point", "coordinates": [-124.97822240503884, -51.14990931429931]}}, {"type": "Feature", "properties": {"norad_id": 36451, "name": "COSMOS 2251 DEB", "group": "cosmos-2251-debris", "lat": -50.517855573942796, "lon": 171.31787451891853, "alt_km": 807.3395375023792, "timestamp": "2025-12-15T04:01:20.849449+00:00", "meta": {"OBJECT_NAME": "COSMOS 2251 DEB", "OBJECT_ID": "1993-036BBA", "EPOCH": "2025-12-08T10:10:07.447584", "MEAN_MOTION": 14.18724413, "ECCENTRICITY": 0.01840749, "INCLINATION": 73.9539, "RA_OF_ASC_NODE": 342.9701, "ARG_OF_PERICENTER": 168.3937, "MEAN_ANOMALY": 192.1542, "EPHEMERIS_TYPE": 0, "CLASSIFICATION_TYPE": "U", "NORAD_CAT_ID": 36451, "ELEMENT_SET_NO": 999, "REV_AT_EPOCH": 84164, "BSTAR": 0.0010726423, "MEAN_MOTION_DOT": 2.61e-05, "MEAN_MOTION_DDOT": 0}, "tle": {"line1": "1 36451U 93036BBA 25342.42369731  .00002610  00000+0  10726-2 0  9997", "line2": "2 36451  73.9539 342.9701 0184074 168.3937 192.1542 14.18724413841646"}}, "geometry": {"type": "Point", "coordinates": [171.31787451891853, -50.517855573942796]}}, {"type": "Feature", "properties": {"norad_id": 36453, "name": "COSMOS 2251 DEB", "group": "cosmos-2251-debris", "lat": 57.355567026653134, "lon": 174.53279168852214, "alt_km": 662.1452021778123, "timestamp": "2025-12-15T04:01:20.849460+00:00", "meta": {"OBJECT_NAME": "COSMOS 2251 DEB", "OBJECT_ID": "1993-036BBC", "EPOCH": "2025-12-14T05:24:41.346720", "MEAN_MOTION": 14.52622899, "ECCENTRICITY": 0.00703566, "INCLINATION": 73.9231, "RA_OF_ASC_NODE": 149.5665, "ARG_OF_PERICENTER": 52.4499, "MEAN_ANOMALY": 123.8553, "EPHEMERIS_TYPE": 0, "CLASSIFICATION_TYPE": "U", "NORAD_CAT_ID": 36453, "ELEMENT_SET_NO": 999, "REV_AT_EPOCH": 84489, "BSTAR": 0.0010040041, "MEAN_MOTION_DOT": 4.218e-05, "MEAN_MOTION_DDOT": 0}, "tle": {"line1": "1 36453U 93036BBC 25348.22547855  .00004218  00000+0  10040-2 0  9993", "line2": "2 36453  73.9231 149.5665 0070356  52.4499 123.8553 14.52622899844896"}}, "geometry": {"type": "Point", "coordinates": [174.53279168852214, 57.355567026653134]}}, {"type": "Feature", "properties": {"norad_id": 36459, "name": "COSMOS 2251 DEB", "group": "cosmos-2251-debris", "lat": 63.73746262678734, "lon": 139.98762006711547, "alt_km": 720.5853799986498, "timestamp": "2025-12-15T04:01:20.849470+00:00", "meta": {"OBJECT_NAME": "COSMOS 2251 DEB", "OBJECT_ID": "1993-036BBJ", "EPOCH": "2025-12-08T08:14:17.711520", "MEAN_MOTION": 14.26367403, "ECCENTRICITY": 0.01135417, "INCLINATION": 74.048, "RA_OF_ASC_NODE": 7.7381, "ARG_OF_PERICENTER": 104.7075, "MEAN_ANOMALY": 256.669, "EPHEMERIS_TYPE": 0, "CLASSIFICATION_TYPE": "U", "NORAD_CAT_ID": 36459, "ELEMENT_SET_NO": 999, "REV_AT_EPOCH": 7819, "BSTAR": 0.0018203568, "MEAN_MOTION_DOT": 4.661e-05, "MEAN_MOTION_DDOT": 0}, "tle": {"line1": "1 36459U 93036BBJ 25342.34326055  .00004661  00000+0  18204-2 0  9995", "line2": "2 36459  74.0480   7.7381 0113541 104.7075 256.6690 14.26367403 78192"}}, "geometry": {"type": "Point", "coordinates": [139.98762006711547, 63.73746262678734]}}, {"type": "Feature", "properties": {"norad_id": 36470, "name": "COSMOS 2251 DEB", "group": "cosmos-2251-debris", "lat": 37.191189268718105, "lon": 56.64894131107447, "alt_km": 533.4665634907187, "timestamp": "2025-12-15T04:01:20.849480+00:00", "meta": {"OBJECT_NAME": "COSMOS 2251 DEB", "OBJECT_ID": "1993-036BBV", "EPOCH": "2025-12-14T00:19:36.266880", "MEAN_MOTION": 15.07504131, "ECCENTRICITY": 0.00223331, "INCLINATION": 73.8447, "RA_OF_ASC_NODE": 251.7553, "ARG_OF_PERICENTER": 80.4035, "MEAN_ANOMALY": 279.9676, "EPHEMERIS_TYPE": 0, "CLASSIFICATION_TYPE": "U", "NORAD_CAT_ID": 36470, "ELEMENT_SET_NO": 999, "REV_AT_EPOCH": 66113, "BSTAR": 0.003398205, "MEAN_MOTION_DOT": 0.0005223, "MEAN_MOTION_DDOT": 0}, "tle": {"line1": "1 36470U 93036BBV 25348.01361420  .00052230  00000+0  33982-2 0  9998", "line2": "2 36470  73.8447 251.7553 0022333  80.4035 279.9676 15.07504131661136"}}, "geometry": {"type": "Point", "coordinates": [56.64894131107447, 37.191189268718105]}}, {"type": "Feature", "properties": {"norad_id": 36528, "name": "COSMOS 2251 DEB", "group": "cosmos-2251-debris", "lat": -72.14168843985769, "lon": 23.619007564752117, "alt_km": 777.4478449837443, "timestamp": "2025-12-15T04:01:20.849490+00:00", "meta": {"OBJECT_NAME": "COSMOS 2251 DEB", "OBJECT_ID": "1993-036BCN", "EPOCH": "2025-12-13T18:55:08.710464", "MEAN_MOTION": 14.30652612, "ECCENTRICITY": 0.00848288, "INCLINATION": 74.0164, "RA_OF_ASC_NODE": 143.3079, "ARG_OF_PERICENTER": 192.5264, "MEAN_ANOMALY": 167.378, "EPHEMERIS_TYPE": 0, "CLASSIFICATION_TYPE": "U", "NORAD_CAT_ID": 36528, "ELEMENT_SET_NO": 999, "REV_AT_EPOCH": 64442, "BSTAR": 0.0014916716, "MEAN_MOTION_DOT": 4.03e-05, "MEAN_MOTION_DDOT": 0}, "tle": {"line1": "1 36528U 93036BCN 25347.78829526  .00004030  00000+0  14917-2 0  9993", "line2": "2 36528  74.0164 143.3079 0084828 192.5264 167.3780 14.30652612644426"}}, "geometry": {"type": "Point", "coordinates": [23.619007564752117, -72.14168843985769]}}, {"type": "Feature", "properties": {"norad_id": 36533, "name": "COSMOS 2251 DEB", "group": "cosmos-2251-debris", "lat": -43.8482493997294, "lon": -53.749234047592076, "alt_km": 703.0654209191543, "timestamp": "2025-12-15T04:01:20.849500+00:00", "meta": {"OBJECT_NAME": "COSMOS 2251 DEB", "OBJECT_ID": "1993-036BCT", "EPOCH": "2025-12-12T08:44:14.485056", "MEAN_MOTION": 14.49814074, "ECCENTRICITY": 0.00492413, "INCLINATION": 74.0111, "RA_OF_ASC_NODE": 115.5327, "ARG_OF_PERICENTER": 264.7641, "MEAN_ANOMALY": 94.7899, "EPHEMERIS_TYPE": 0, "CLASSIFICATION_TYPE": "U", "NORAD_CAT_ID": 36533, "ELEMENT_SET_NO": 999, "REV_AT_EPOCH": 84479, "BSTAR": 0.00081187814, "MEAN_MOTION_DOT": 3.153e-05, "MEAN_MOTION_DDOT": 0}, "tle": {"line1": "1 36533U 93036BCT 25346.36405654  .00003153  00000+0  81188-3 0  9994", "line2": "2 36533  74.0111 115.5327 0049241 264.7641  94.7899 14.49814074844790"}}, "geometry": {"type": "Point", "coordinates": [-53.749234047592076, -43.8482493997294]}}, {"type": "Feature", "properties": {"norad_id": 36539, "name": "COSMOS 2251 DEB", "group": "cosmos-2251-debris", "lat": 28.35953043137055, "lon": -138.3462983635602, "alt_km": 680.1436475780902, "timestamp": "2025-12-15T04:01:20.849510+00:00", "meta": {"OBJECT_NAME": "COSMOS 2251 DEB", "OBJECT_ID": "1993-036BCZ", "EPOCH": "2025-12-14T04:18:02.935296", "MEAN_MOTION": 14.5931612, "ECCENTRICITY": 0.00271196, "INCLINATION": 74.0243, "RA_OF_ASC_NODE": 52.4339, "ARG_OF_PERICENTER": 197.3898, "MEAN_ANOMALY": 162.6341, "EPHEMERIS_TYPE": 0, "CLASSIFICATION_TYPE": "U", "NORAD_CAT_ID": 36539, "ELEMENT_SET_NO": 999, "REV_AT_EPOCH": 83968, "BSTAR": 0.00080291517, "MEAN_MOTION_DOT": 3.787e-05, "MEAN_MOTION_DDOT": 0}, "tle": {"line1": "1 36539U 93036BCZ 25348.17920064  .00003787  00000+0  80292-3 0  9996", "line2": "2 36539  74.0243  52.4339 0027119 197.3898 162.6341 14.59316120839688"}}, "geometry": {"type": "Point", "coordinates": [-138.3462983635602, 28.35953043137055]}}]}